{"type": "FeatureCollection", "features": [{"type": "Feature", "geometry": {"type": "Point", "coordinates": [22.2, 52.1]}, "properties": {"id": "demo-geo-1", "name": "[DEMO] Observation post reported", "description": "DEMO fictional point", "event_type": "clash", "event_time": "2026-09-28T14:00:00", "url": "https://example.com/demo/geo/1"}}, {"type": "Feature", "geometry": {"type": "Polygon", "coordinates": [[[21.5, 51.7], [22.5, 51.7], [22.5, 52.3], [21.5, 52.3], [21.5, 51.7]]]}, "properties": {"id": "demo-geo-2", "name": "[DEMO] Monitoring perimeter update", "description": "DEMO fictional polygon, no single lat/lon", "event_type": "territorial_change", "event_time": "2026-09-29T10:00:00", "url": "https://example.com/demo/geo/2"}}]}
